{
  "type": "FeatureCollection",
  "features": [
    {
      "type": "Feature",
      "properties": {
        "norad_id": 29486,
        "name": "GPS BIIRM-2 (PRN 31)",
        "group": "gps-ops",
        "lat": -31.022795507746764,
        "lon": 133.6290121281939,
        "alt_km": 20189.172944292804,
        "timestamp": "2025-12-09T11:33:55.058358+00:00",
        "meta_object_name": "GPS BIIRM-2 (PRN 31)",
        "meta_object_id": "2006-042A",
        "meta_epoch": "2025-12-08T13:17:33.123840",
        "meta_mean_motion": 2.00554246,
        "meta_eccentricity": 0.0107364,
        "meta_inclination": 54.6936,
        "meta_ra_of_asc_node": 158.9068,
        "meta_arg_of_pericenter": 51.8598,
        "meta_mean_anomaly": 320.1374,
        "meta_ephemeris_type": 0,
        "meta_classification_type": "U",
        "meta_norad_cat_id": 29486,
        "meta_element_set_no": 999,
        "meta_rev_at_epoch": 14057,
        "meta_bstar": 0,
        "meta_mean_motion_dot": 6e-07,
        "meta_mean_motion_ddot": 0,
        "tle_line1": "1 29486U 06042A   25342.55385560  .00000060  00000+0  00000+0 0  9998",
        "tle_line2": "2 29486  54.6936 158.9068 0107364  51.8598 320.1374  2.00554246140573"
      },
      "geometry": {
        "type": "Point",
        "coordinates": [
          133.6290121281939,
          -31.022795507746764
        ]
      }
    },
    {
      "type": "Feature",
      "properties": {
        "norad_id": 29601,
        "name": "GPS BIIRM-3 (PRN 12)",
        "group": "gps-ops",
        "lat": 15.04197103749184,
        "lon": -127.60576562750188,
        "alt_km": 20093.94385130875,
        "timestamp": "2025-12-09T11:33:55.058370+00:00",
        "meta_object_name": "GPS BIIRM-3 (PRN 12)",
        "meta_object_id": "2006-052A",
        "meta_epoch": "2025-12-08T22:59:17.693952",
        "meta_mean_motion": 2.00573216,
        "meta_eccentricity": 0.0087724,
        "meta_inclination": 54.9712,
        "meta_ra_of_asc_node": 221.5484,
        "meta_arg_of_pericenter": 87.3982,
        "meta_mean_anomaly": 273.6876,
        "meta_ephemeris_type": 0,
        "meta_classification_type": "U",
        "meta_norad_cat_id": 29601,
        "meta_element_set_no": 999,
        "meta_rev_at_epoch": 13959,
        "meta_bstar": 0,
        "meta_mean_motion_dot": 1e-07,
        "meta_mean_motion_ddot": 0,
        "tle_line1": "1 29601U 06052A   25342.95784368  .00000010  00000+0  00000+0 0  9996",
        "tle_line2": "2 29601  54.9712 221.5484 0087724  87.3982 273.6876  2.00573216139591"
      },
      "geometry": {
        "type": "Point",
        "coordinates": [
          -127.60576562750188,
          15.04197103749184
        ]
      }
    },
    {
      "type": "Feature",
      "properties": {
        "norad_id": 32260,
        "name": "GPS BIIRM-4 (PRN 15)",
        "group": "gps-ops",
        "lat": 14.917944576435831,
        "lon": -103.28174006564194,
        "alt_km": 20069.883579823407,
        "timestamp": "2025-12-09T11:33:55.058382+00:00",
        "meta_object_name": "GPS BIIRM-4 (PRN 15)",
        "meta_object_id": "2007-047A",
        "meta_epoch": "2025-12-07T18:25:34.370688",
        "meta_mean_motion": 2.00564615,
        "meta_eccentricity": 0.01643014,
        "meta_inclination": 53.9519,
        "meta_ra_of_asc_node": 87.9639,
        "meta_arg_of_pericenter": 85.1876,
        "meta_mean_anomaly": 276.6737,
        "meta_ephemeris_type": 0,
        "meta_classification_type": "U",
        "meta_norad_cat_id": 32260,
        "meta_element_set_no": 999,
        "meta_rev_at_epoch": 13297,
        "meta_bstar": 0,
        "meta_mean_motion_dot": -1.8e-07,
        "meta_mean_motion_ddot": 0,
        "tle_line1": "1 32260U 07047A   25341.76775892 -.00000018  00000+0  00000+0 0  9995",
        "tle_line2": "2 32260  53.9519  87.9639 0164301  85.1876 276.6737  2.00564615132978"
      },
      "geometry": {
        "type": "Point",
        "coordinates": [
          -103.28174006564194,
          14.917944576435831
        ]
      }
    },
    {
      "type": "Feature",
      "properties": {
        "norad_id": 32384,
        "name": "GPS BIIRM-5 (PRN 29)",
        "group": "gps-ops",
        "lat": -50.955538191271515,
        "lon": -137.20510998208192,
        "alt_km": 20237.32168351456,
        "timestamp": "2025-12-09T11:33:55.058394+00:00",
        "meta_object_name": "GPS BIIRM-5 (PRN 29)",
        "meta_object_id": "2007-062A",
        "meta_epoch": "2025-12-09T04:27:19.804032",
        "meta_mean_motion": 2.00577042,
        "meta_eccentricity": 0.0032222,
        "meta_inclination": 55.1854,
        "meta_ra_of_asc_node": 281.7885,
        "meta_arg_of_pericenter": 162.5723,
        "meta_mean_anomaly": 272.1574,
        "meta_ephemeris_type": 0,
        "meta_classification_type": "U",
        "meta_norad_cat_id": 32384,
        "meta_element_set_no": 999,
        "meta_rev_at_epoch": 13170,
        "meta_bstar": 0,
        "meta_mean_motion_dot": -5.2e-07,
        "meta_mean_motion_ddot": 0,
        "tle_line1": "1 32384U 07062A   25343.18564588 -.00000052  00000+0  00000+0 0  9993",
        "tle_line2": "2 32384  55.1854 281.7885 0032222 162.5723 272.1574  2.00577042131703"
      },
      "geometry": {
        "type": "Point",
        "coordinates": [
          -137.20510998208192,
          -50.955538191271515
        ]
      }
    },
    {
      "type": "Feature",
      "properties": {
        "norad_id": 32711,
        "name": "GPS BIIRM-6 (PRN 07)",
        "group": "gps-ops",
        "lat": -25.486677915378102,
        "lon": -2.587957527707157,
        "alt_km": 19731.86104913136,
        "timestamp": "2025-12-09T11:33:55.058405+00:00",
        "meta_object_name": "GPS BIIRM-6 (PRN 07)",
        "meta_object_id": "2008-012A",
        "meta_epoch": "2025-12-08T16:26:43.186848",
        "meta_mean_motion": 2.00565395,
        "meta_eccentricity": 0.0202275,
        "meta_inclination": 54.4766,
        "meta_ra_of_asc_node": 157.5348,
        "meta_arg_of_pericenter": 244.9025,
        "meta_mean_anomaly": 112.9918,
        "meta_ephemeris_type": 0,
        "meta_classification_type": "U",
        "meta_norad_cat_id": 32711,
        "meta_element_set_no": 999,
        "meta_rev_at_epoch": 12993,
        "meta_bstar": 0,
        "meta_mean_motion_dot": 6e-07,
        "meta_mean_motion_ddot": 0,
        "tle_line1": "1 32711U 08012A   25342.68522207  .00000060  00000+0  00000+0 0  9997",
        "tle_line2": "2 32711  54.4766 157.5348 0202275 244.9025 112.9918  2.00565395129935"
      },
      "geometry": {
        "type": "Point",
        "coordinates": [
          -2.587957527707157,
          -25.486677915378102
        ]
      }
    },
    {
      "type": "Feature",
      "properties": {
        "norad_id": 35752,
        "name": "GPS BIIRM-8 (PRN 05)",
        "group": "gps-ops",
        "lat": -41.79415420839418,
        "lon": -108.13823792114503,
        "alt_km": 20308.069559244956,
        "timestamp": "2025-12-09T11:33:55.058417+00:00",
        "meta_object_name": "GPS BIIRM-8 (PRN 05)",
        "meta_object_id": "2009-043A",
        "meta_epoch": "2025-12-09T03:40:35.787072",
        "meta_mean_motion": 2.00565819,
        "meta_eccentricity": 0.0051902,
        "meta_inclination": 56.0885,
        "meta_ra_of_asc_node": 34.9246,
        "meta_arg_of_pericenter": 81.9687,
        "meta_mean_anomaly": 273.8421,
        "meta_ephemeris_type": 0,
        "meta_classification_type": "U",
        "meta_norad_cat_id": 35752,
        "meta_element_set_no": 999,
        "meta_rev_at_epoch": 11954,
        "meta_bstar": 0,
        "meta_mean_motion_dot": -8.5e-07,
        "meta_mean_motion_ddot": 0,
        "tle_line1": "1 35752U 09043A   25343.15319198 -.00000085  00000+0  00000+0 0  9994",
        "tle_line2": "2 35752  56.0885  34.9246 0051902  81.9687 273.8421  2.00565819119543"
      },
      "geometry": {
        "type": "Point",
        "coordinates": [
          -108.13823792114503,
          -41.79415420839418
        ]
      }
    },
    {
      "type": "Feature",
      "properties": {
        "norad_id": 36585,
        "name": "GPS BIIF-1  (PRN 25)",
        "group": "gps-ops",
        "lat": -7.955004471951499,
        "lon": -149.54807244177164,
        "alt_km": 20092.69826401991,
        "timestamp": "2025-12-09T11:33:55.058428+00:00",
        "meta_object_name": "GPS BIIF-1  (PRN 25)",
        "meta_object_id": "2010-022A",
        "meta_epoch": "2025-12-09T03:49:25.990176",
        "meta_mean_motion": 2.0055298,
        "meta_eccentricity": 0.0125962,
        "meta_inclination": 54.3007,
        "meta_ra_of_asc_node": 216.2184,
        "meta_arg_of_pericenter": 65.0334,
        "meta_mean_anomaly": 53.7315,
        "meta_ephemeris_type": 0,
        "meta_classification_type": "U",
        "meta_norad_cat_id": 36585,
        "meta_element_set_no": 999,
        "meta_rev_at_epoch": 11378,
        "meta_bstar": 0,
        "meta_mean_motion_dot": 1.4e-07,
        "meta_mean_motion_ddot": 0,
        "tle_line1": "1 36585U 10022A   25343.15932859  .00000014  00000+0  00000+0 0  9994",
        "tle_line2": "2 36585  54.3007 216.2184 0125962  65.0334  53.7315  2.00552980113783"
      },
      "geometry": {
        "type": "Point",
        "coordinates": [
          -149.54807244177164,
          -7.955004471951499
        ]
      }
    }
  ]
}